{
  "type": "FeatureCollection",
  "features": [
    {
      "type": "Feature",
      "properties": {
        "norad_id": 36049,
        "name": "COSMOS 2251 DEB",
        "group": "cosmos-2251-debris",
        "lat": -38.928102549101695,
        "lon": -75.91492028479495,
        "alt_km": 686.6269414963326,
        "timestamp": "2025-12-27T14:26:30.918498+00:00",
        "meta_object_name": "COSMOS 2251 DEB",
        "meta_object_id": "1993-036AXL",
        "meta_epoch": "2025-12-26T16:05:29.446944",
        "meta_mean_motion": 14.62322708,
        "meta_eccentricity": 0.00097717,
        "meta_inclination": 74.0312,
        "meta_ra_of_asc_node": 92.4958,
        "meta_arg_of_pericenter": 180.7099,
        "meta_mean_anomaly": 179.4056,
        "meta_ephemeris_type": 0,
        "meta_classification_type": "U",
        "meta_norad_cat_id": 36049,
        "meta_element_set_no": 999,
        "meta_rev_at_epoch": 85568,
        "meta_bstar": 0.0013628703,
        "meta_mean_motion_dot": 6.864e-05,
        "meta_mean_motion_ddot": 0,
        "tle_line1": "1 36049U 93036AXL 25360.67047971  .00006864  00000+0  13629-2 0  9996",
        "tle_line2": "2 36049  74.0312  92.4958 0009771 180.7099 179.4056 14.62322708855685"
      },
      "geometry": {
        "type": "Point",
        "coordinates": [
          -75.91492028479495,
          -38.928102549101695
        ]
      }
    },
    {
      "type": "Feature",
      "properties": {
        "norad_id": 36050,
        "name": "COSMOS 2251 DEB",
        "group": "cosmos-2251-debris",
        "lat": -29.620411100781478,
        "lon": -6.8745782457119295,
        "alt_km": 514.8844594398252,
        "timestamp": "2025-12-27T14:26:30.918510+00:00",
        "meta_object_name": "COSMOS 2251 DEB",
        "meta_object_id": "1993-036AXM",
        "meta_epoch": "2025-12-23T18:20:06.375552",
        "meta_mean_motion": 15.01191833,
        "meta_eccentricity": 0.00883826,
        "meta_inclination": 74.0302,
        "meta_ra_of_asc_node": 171.57,
        "meta_arg_of_pericenter": 248.7055,
        "meta_mean_anomaly": 110.468,
        "meta_ephemeris_type": 0,
        "meta_classification_type": "U",
        "meta_norad_cat_id": 36050,
        "meta_element_set_no": 999,
        "meta_rev_at_epoch": 67200,
        "meta_bstar": 0.00066513085,
        "meta_mean_motion_dot": 9.246e-05,
        "meta_mean_motion_ddot": 0,
        "tle_line1": "1 36050U 93036AXM 25357.76396268  .00009246  00000+0  66513-3 0  9998",
        "tle_line2": "2 36050  74.0302 171.5700 0088382 248.7055 110.4680 15.01191833672000"
      },
      "geometry": {
        "type": "Point",
        "coordinates": [
          -6.8745782457119295,
          -29.620411100781478
        ]
      }
    },
    {
      "type": "Feature",
      "properties": {
        "norad_id": 36053,
        "name": "COSMOS 2251 DEB",
        "group": "cosmos-2251-debris",
        "lat": -62.09147721501737,
        "lon": 91.04869296411694,
        "alt_km": 724.7916760502867,
        "timestamp": "2025-12-27T14:26:30.918521+00:00",
        "meta_object_name": "COSMOS 2251 DEB",
        "meta_object_id": "1993-036AXQ",
        "meta_epoch": "2025-12-26T00:51:23.527872",
        "meta_mean_motion": 14.57338547,
        "meta_eccentricity": 0.00324806,
        "meta_inclination": 73.8704,
        "meta_ra_of_asc_node": 127.1707,
        "meta_arg_of_pericenter": 71.5947,
        "meta_mean_anomaly": 288.8743,
        "meta_ephemeris_type": 0,
        "meta_classification_type": "U",
        "meta_norad_cat_id": 36053,
        "meta_element_set_no": 999,
        "meta_rev_at_epoch": 87638,
        "meta_bstar": 0.0014377554,
        "meta_mean_motion_dot": 6.535e-05,
        "meta_mean_motion_ddot": 0,
        "tle_line1": "1 36053U 93036AXQ 25360.03568898  .00006535  00000+0  14378-2 0  9994",
        "tle_line2": "2 36053  73.8704 127.1707 0032480  71.5947 288.8743 14.57338547876382"
      },
      "geometry": {
        "type": "Point",
        "coordinates": [
          91.04869296411694,
          -62.09147721501737
        ]
      }
    },
    {
      "type": "Feature",
      "properties": {
        "norad_id": 36058,
        "name": "COSMOS 2251 DEB",
        "group": "cosmos-2251-debris",
        "lat": 40.548470929925394,
        "lon": 170.94963670000544,
        "alt_km": 662.5153775728277,
        "timestamp": "2025-12-27T14:26:30.918531+00:00",
        "meta_object_name": "COSMOS 2251 DEB",
        "meta_object_id": "1993-036AXV",
        "meta_epoch": "2025-12-20T18:52:04.818432",
        "meta_mean_motion": 14.58726339,
        "meta_eccentricity": 0.00440828,
        "meta_inclination": 74.0229,
        "meta_ra_of_asc_node": 18.1226,
        "meta_arg_of_pericenter": 150.2394,
        "meta_mean_anomaly": 210.1292,
        "meta_ephemeris_type": 0,
        "meta_classification_type": "U",
        "meta_norad_cat_id": 36058,
        "meta_element_set_no": 999,
        "meta_rev_at_epoch": 66228,
        "meta_bstar": 0.0002931852,
        "meta_mean_motion_dot": 1.357e-05,
        "meta_mean_motion_ddot": 0,
        "tle_line1": "1 36058U 93036AXV 25354.78616688  .00001357  00000+0  29319-3 0  9994",
        "tle_line2": "2 36058  74.0229  18.1226 0044082 150.2394 210.1292 14.58726339662289"
      },
      "geometry": {
        "type": "Point",
        "coordinates": [
          170.94963670000544,
          40.548470929925394
        ]
      }
    },
    {
      "type": "Feature",
      "properties": {
        "norad_id": 36060,
        "name": "COSMOS 2251 DEB",
        "group": "cosmos-2251-debris",
        "lat": -44.563359158759326,
        "lon": 43.38973724092654,
        "alt_km": 755.3651841872561,
        "timestamp": "2025-12-27T14:26:30.918541+00:00",
        "meta_object_name": "COSMOS 2251 DEB",
        "meta_object_id": "1993-036AXX",
        "meta_epoch": "2025-12-26T20:44:31.560288",
        "meta_mean_motion": 14.42028331,
        "meta_eccentricity": 0.00156628,
        "meta_inclination": 74.0274,
        "meta_ra_of_asc_node": 208.3726,
        "meta_arg_of_pericenter": 303.9859,
        "meta_mean_anomaly": 55.9808,
        "meta_ephemeris_type": 0,
        "meta_classification_type": "U",
        "meta_norad_cat_id": 36060,
        "meta_element_set_no": 999,
        "meta_rev_at_epoch": 85213,
        "meta_bstar": 0.00030100032,
        "meta_mean_motion_dot": 9.63e-06,
        "meta_mean_motion_ddot": 0,
        "tle_line1": "1 36060U 93036AXX 25360.86425417  .00000963  00000+0  30100-3 0  9993",
        "tle_line2": "2 36060  74.0274 208.3726 0015662 303.9859  55.9808 14.42028331852138"
      },
      "geometry": {
        "type": "Point",
        "coordinates": [
          43.38973724092654,
          -44.563359158759326
        ]
      }
    },
    {
      "type": "Feature",
      "properties": {
        "norad_id": 36061,
        "name": "COSMOS 2251 DEB",
        "group": "cosmos-2251-debris",
        "lat": -33.89544821887571,
        "lon": -38.540805683647385,
        "alt_km": 785.5710736864594,
        "timestamp": "2025-12-27T14:26:30.918577+00:00",
        "meta_object_name": "COSMOS 2251 DEB",
        "meta_object_id": "1993-036AXY",
        "meta_epoch": "2025-12-27T04:33:31.943520",
        "meta_mean_motion": 14.33732891,
        "meta_eccentricity": 0.00370771,
        "meta_inclination": 74.0245,
        "meta_ra_of_asc_node": 333.3093,
        "meta_arg_of_pericenter": 56.7156,
        "meta_mean_anomaly": 303.7539,
        "meta_ephemeris_type": 0,
        "meta_classification_type": "U",
        "meta_norad_cat_id": 36061,
        "meta_element_set_no": 999,
        "meta_rev_at_epoch": 65311,
        "meta_bstar": 0.00037460716,
        "meta_mean_motion_dot": 1.022e-05,
        "meta_mean_motion_ddot": 0,
        "tle_line1": "1 36061U 93036AXY 25361.18995305  .00001022  00000+0  37461-3 0  9992",
        "tle_line2": "2 36061  74.0245 333.3093 0037077  56.7156 303.7539 14.33732891653115"
      },
      "geometry": {
        "type": "Point",
        "coordinates": [
          -38.540805683647385,
          -33.89544821887571
        ]
      }
    },
    {
      "type": "Feature",
      "properties": {
        "norad_id": 36073,
        "name": "COSMOS 2251 DEB",
        "group": "cosmos-2251-debris",
        "lat": 49.115644896382726,
        "lon": 95.99834779165899,
        "alt_km": 781.3192130842353,
        "timestamp": "2025-12-27T14:26:30.918588+00:00",
        "meta_object_name": "COSMOS 2251 DEB",
        "meta_object_id": "1993-036AYL",
        "meta_epoch": "2025-12-27T02:08:09.358944",
        "meta_mean_motion": 14.34971678,
        "meta_eccentricity": 0.00244527,
        "meta_inclination": 74.0317,
        "meta_ra_of_asc_node": 296.2512,
        "meta_arg_of_pericenter": 0.2283,
        "meta_mean_anomaly": 359.8876,
        "meta_ephemeris_type": 0,
        "meta_classification_type": "U",
        "meta_norad_cat_id": 36073,
        "meta_element_set_no": 999,
        "meta_rev_at_epoch": 70413,
        "meta_bstar": 0.00027005174,
        "meta_mean_motion_dot": 7.45e-06,
        "meta_mean_motion_ddot": 0,
        "tle_line1": "1 36073U 93036AYL 25361.08899721  .00000745  00000+0  27005-3 0  9993",
        "tle_line2": "2 36073  74.0317 296.2512 0024452   0.2283 359.8876 14.34971678704133"
      },
      "geometry": {
        "type": "Point",
        "coordinates": [
          95.99834779165899,
          49.115644896382726
        ]
      }
    }
  ]
}